ORBCOMM FM20 [+]        
1 25416U 98046D   23295.71727773  .00001159  00000+0  45689-3 0  9997
2 25416  44.9938 152.5706 0000906  50.2537 309.8390 14.34517029317537
ORBCOMM FM16 [-]        
1 25417U 98046E   23295.93299299  .00001699  00000+0  63703-3 0  9995
2 25417  44.9936 148.6192 0003804 136.6083 223.5064 14.35236174317480
ORBCOMM FM15 [-]        
1 25418U 98046F   23295.92330087  .00001660  00000+0  62676-3 0  9992
2 25418  44.9969 152.2793 0003205 137.6394 222.4701 14.34989308317496
ORBCOMM FM14 [-]        
1 25419U 98046G   23295.90016757  .00001724  00000+0  64759-3 0  9991
2 25419  44.9953 151.7269 0002333 118.6661 255.9321 14.35104836317449
ORBCOMM FM13 [+]        
1 25420U 98046H   23295.92444700  .00001583  00000+0  60501-3 0  9992
2 25420  44.9971 155.4939 0004424 122.7189 237.4085 14.34558708316520
ORBCOMM FM21 [-]        
1 25475U 98053A   23295.59385654  .00001599  00000+0  61040-3 0  9991
2 25475  45.0080 241.1630 0001514 326.4794  33.5957 14.34577779310825
ORBCOMM FM22 [-]        
1 25476U 98053B   23295.56409011  .00001707  00000+0  64356-3 0  9997
2 25476  45.0075 239.2815 0002017  25.1167 334.9778 14.34949047310470
ORBCOMM FM23 [-]        
1 25477U 98053C   23295.55403868  .00001646  00000+0  62726-3 0  9992
2 25477  45.0082 243.7939 0001663   2.9677 357.1180 14.34553205310944
